STARLINK-4011           
1 52615U 22052T   25247.73970939 -.00000286  00000+0  14151-6 0  9991
2 52615  53.2185  38.8809 0001211  92.7561 267.3570 15.08836964182704
STARLINK-4015           
1 52616U 22052U   25247.68405342 -.00000838  00000+0 -34565-4 0  9990
2 52616  53.2195  24.1319 0001283  86.1067 274.0072 15.08833176182914
STARLINK-3996           
1 52617U 22052V   25247.67669136 -.00000945  00000+0 -41306-4 0  9993
2 52617  53.2200  24.1697 0001316  94.4967 265.6176 15.08832464182908
STARLINK-3983           
1 52618U 22052W   25247.68037053 -.00000420  00000+0 -83341-5 0  9996
2 52618  53.2189  24.1507 0001303 100.5388 259.5751 15.08834779182909
STARLINK-3741           
1 52619U 22052X   25247.67300691 -.00000523  00000+0 -14802-4 0  9996
2 52619  53.2205  24.1782 0001347 102.8842 257.2300 15.08836000182906
STARLINK-3975           
1 52620U 22052Y   25247.73602367 -.00001897  00000+0 -10112-3 0  9994
2 52620  53.2175  38.8969 0001209  83.8572 276.2558 15.08844513182700
STARLINK-3984           
1 52621U 22052Z   25247.66564873 -.00000727  00000+0 -27613-4 0  9992
2 52621  53.2186  24.2175 0001335  95.2065 264.9080 15.08834926182908
STARLINK-4008           
1 52622U 22052AA  25247.69922618 -.00001473  00000+0 -74486-4 0  9990
2 52622  53.2180  39.0666 0001375  88.6036 271.5113 15.08847589182708
STARLINK-3986           
1 52623U 22052AB  25247.66196893 -.00000284  00000+0  25693-6 0  9992
2 52623  53.2188  24.2343 0001193  89.5708 270.5421 15.08834076182909
STARLINK-3988           
1 52625U 22052AD  25247.65828648 -.00000059  00000+0  14372-4 0  9993
2 52625  53.2181  24.2512 0001395  91.9859 268.1293 15.08836176182903
STARLINK-3990           
1 52626U 22052AE  25247.66932525 -.00002197  00000+0 -11998-3 0  9991
2 52626  53.2182  24.2018 0001386  91.7066 268.4085 15.08842143182907
STARLINK-3992           
1 52627U 22052AF  25247.58100987 -.00000695  00000+0 -25610-4 0  9990
2 52627  53.2173  24.5931 0001303  91.2141 268.9000 15.08834253182908
STARLINK-4001           
1 52628U 22052AG  25247.69554926 -.00000504  00000+0 -13552-4 0  9990
2 52628  53.2169  39.0820 0001449  90.2204 269.8954 15.08835127182709
STARLINK-4022           
1 52629U 22052AH  25247.70612646  .00000115  00000+0  25312-4 0  9990
2 52629  53.2180  23.9942 0001212  80.6283 279.4846 15.08837609182915
STARLINK-3989           
1 52630U 22052AJ  25247.65460665  .00000026  00000+0  19716-4 0  9990
2 52630  53.2188  24.2682 0001230  88.8581 271.2552 15.08837098182906
STARLINK-3794           
1 52631U 22052AK  25247.64085547 -.00000362  00000+0 -46865-5 0  9993
2 52631  53.2185  24.3350 0001307  79.5119 280.6021 15.08827595182913
