[{"OBJECT_NAME":"STARLINK-4011","OBJECT_ID":"2022-052T","EPOCH":"2025-09-04T17:45:10.891296","MEAN_MOTION":15.08836964,"ECCENTRICITY":0.0001211,"INCLINATION":53.2185,"RA_OF_ASC_NODE":38.8809,"ARG_OF_PERICENTER":92.7561,"MEAN_ANOMALY":267.357,"EPHEMERIS_TYPE":0,"CLASSIFICATION_TYPE":"U","NORAD_CAT_ID":52615,"ELEMENT_SET_NO":999,"REV_AT_EPOCH":18270,"BSTAR":1.41513e-7,"MEAN_MOTION_DOT":-2.86e-6,"MEAN_MOTION_DDOT":0},{"OBJECT_NAME":"STARLINK-4015","OBJECT_ID":"2022-052U","EPOCH":"2025-09-04T16:25:02.215488","MEAN_MOTION":15.08833176,"ECCENTRICITY":0.00012832,"INCLINATION":53.2195,"RA_OF_ASC_NODE":24.1319,"ARG_OF_PERICENTER":86.1067,"MEAN_ANOMALY":274.0072,"EPHEMERIS_TYPE":0,"CLASSIFICATION_TYPE":"U","NORAD_CAT_ID":52616,"ELEMENT_SET_NO":999,"REV_AT_EPOCH":18291,"BSTAR":-3.4565235e-5,"MEAN_MOTION_DOT":-8.38e-6,"MEAN_MOTION_DDOT":0},{"OBJECT_NAME":"STARLINK-3996","OBJECT_ID":"2022-052V","EPOCH":"2025-09-04T16:14:26.133504","MEAN_MOTION":15.08832464,"ECCENTRICITY":0.00013163,"INCLINATION":53.22,"RA_OF_ASC_NODE":24.1697,"ARG_OF_PERICENTER":94.4967,"MEAN_ANOMALY":265.6176,"EPHEMERIS_TYPE":0,"CLASSIFICATION_TYPE":"U","NORAD_CAT_ID":52617,"ELEMENT_SET_NO":999,"REV_AT_EPOCH":18290,"BSTAR":-4.1305755e-5,"MEAN_MOTION_DOT":-9.45e-6,"MEAN_MOTION_DDOT":0},{"OBJECT_NAME":"STARLINK-3983","OBJECT_ID":"2022-052W","EPOCH":"2025-09-04T16:19:44.013792","MEAN_MOTION":15.08834779,"ECCENTRICITY":0.00013036,"INCLINATION":53.2189,"RA_OF_ASC_NODE":24.1507,"ARG_OF_PERICENTER":100.5388,"MEAN_ANOMALY":259.5751,"EPHEMERIS_TYPE":0,"CLASSIFICATION_TYPE":"U","NORAD_CAT_ID":52618,"ELEMENT_SET_NO":999,"REV_AT_EPOCH":18290,"BSTAR":-8.334069e-6,"MEAN_MOTION_DOT":-4.2e-6,"MEAN_MOTION_DDOT":0},{"OBJECT_NAME":"STARLINK-3741","OBJECT_ID":"2022-052X","EPOCH":"2025-09-04T16:09:07.797024","MEAN_MOTION":15.08836,"ECCENTRICITY":0.00013476,"INCLINATION":53.2205,"RA_OF_ASC_NODE":24.1782,"ARG_OF_PERICENTER":102.8842,"MEAN_ANOMALY":257.23,"EPHEMERIS_TYPE":0,"CLASSIFICATION_TYPE":"U","NORAD_CAT_ID":52619,"ELEMENT_SET_NO":999,"REV_AT_EPOCH":18290,"BSTAR":-1.4802098e-5,"MEAN_MOTION_DOT":-5.23e-6,"MEAN_MOTION_DDOT":0},{"OBJECT_NAME":"STARLINK-3975","OBJECT_ID":"2022-052Y","EPOCH":"2025-09-04T17:39:52.445088","MEAN_MOTION":15.08844513,"ECCENTRICITY":0.0001209,"INCLINATION":53.2175,"RA_OF_ASC_NODE":38.8969,"ARG_OF_PERICENTER":83.8572,"MEAN_ANOMALY":276.2558,"EPHEMERIS_TYPE":0,"CLASSIFICATION_TYPE":"U","NORAD_CAT_ID":52620,"ELEMENT_SET_NO":999,"REV_AT_EPOCH":18270,"BSTAR":-0.0001011156,"MEAN_MOTION_DOT":-1.897e-5,"MEAN_MOTION_DDOT":0},{"OBJECT_NAME":"STARLINK-3984","OBJECT_ID":"2022-052Z","EPOCH":"2025-09-04T15:58:32.050272","MEAN_MOTION":15.08834926,"ECCENTRICITY":0.00013353,"INCLINATION":53.2186,"RA_OF_ASC_NODE":24.2175,"ARG_OF_PERICENTER":95.2065,"MEAN_ANOMALY":264.908,"EPHEMERIS_TYPE":0,"CLASSIFICATION_TYPE":"U","NORAD_CAT_ID":52621,"ELEMENT_SET_NO":999,"REV_AT_EPOCH":18290,"BSTAR":-2.7612778e-5,"MEAN_MOTION_DOT":-7.27e-6,"MEAN_MOTION_DDOT":0},{"OBJECT_NAME":"STARLINK-4008","OBJECT_ID":"2022-052AA","EPOCH":"2025-09-04T16:46:53.141952","MEAN_MOTION":15.08847589,"ECCENTRICITY":0.00013753,"INCLINATION":53.218,"RA_OF_ASC_NODE":39.0666,"ARG_OF_PERICENTER":88.6036,"MEAN_ANOMALY":271.5113,"EPHEMERIS_TYPE":0,"CLASSIFICATION_TYPE":"U","NORAD_CAT_ID":52622,"ELEMENT_SET_NO":999,"REV_AT_EPOCH":18270,"BSTAR":-7.4485514e-5,"MEAN_MOTION_DOT":-1.473e-5,"MEAN_MOTION_DDOT":0},{"OBJECT_NAME":"STARLINK-3986","OBJECT_ID":"2022-052AB","EPOCH":"2025-09-04T15:53:14.115552","MEAN_MOTION":15.08834076,"ECCENTRICITY":0.00011931,"INCLINATION":53.2188,"RA_OF_ASC_NODE":24.2343,"ARG_OF_PERICENTER":89.5708,"MEAN_ANOMALY":270.5421,"EPHEMERIS_TYPE":0,"CLASSIFICATION_TYPE":"U","NORAD_CAT_ID":52623,"ELEMENT_SET_NO":999,"REV_AT_EPOCH":18290,"BSTAR":2.56928e-7,"MEAN_MOTION_DOT":-2.84e-6,"MEAN_MOTION_DDOT":0},{"OBJECT_NAME":"STARLINK-3988","OBJECT_ID":"2022-052AD","EPOCH":"2025-09-04T15:47:55.951872","MEAN_MOTION":15.08836176,"ECCENTRICITY":0.00013955,"INCLINATION":53.2181,"RA_OF_ASC_NODE":24.2512,"ARG_OF_PERICENTER":91.9859,"MEAN_ANOMALY":268.1293,"EPHEMERIS_TYPE":0,"CLASSIFICATION_TYPE":"U","NORAD_CAT_ID":52625,"ELEMENT_SET_NO":999,"REV_AT_EPOCH":18290,"BSTAR":1.4372437e-5,"MEAN_MOTION_DOT":-5.9e-7,"MEAN_MOTION_DDOT":0},{"OBJECT_NAME":"STARLINK-3990","OBJECT_ID":"2022-052AE","EPOCH":"2025-09-04T16:03:49.701600","MEAN_MOTION":15.08842143,"ECCENTRICITY":0.00013864,"INCLINATION":53.2182,"RA_OF_ASC_NODE":24.2018,"ARG_OF_PERICENTER":91.7066,"MEAN_ANOMALY":268.4085,"EPHEMERIS_TYPE":0,"CLASSIFICATION_TYPE":"U","NORAD_CAT_ID":52626,"ELEMENT_SET_NO":999,"REV_AT_EPOCH":18290,"BSTAR":-0.00011997857,"MEAN_MOTION_DOT":-2.197e-5,"MEAN_MOTION_DDOT":0},{"OBJECT_NAME":"STARLINK-3992","OBJECT_ID":"2022-052AF","EPOCH":"2025-09-04T13:56:39.252768","MEAN_MOTION":15.08834253,"ECCENTRICITY":0.00013039,"INCLINATION":53.2173,"RA_OF_ASC_NODE":24.5931,"ARG_OF_PERICENTER":91.2141,"MEAN_ANOMALY":268.9,"EPHEMERIS_TYPE":0,"CLASSIFICATION_TYPE":"U","NORAD_CAT_ID":52627,"ELEMENT_SET_NO":999,"REV_AT_EPOCH":18290,"BSTAR":-2.5610494e-5,"MEAN_MOTION_DOT":-6.95e-6,"MEAN_MOTION_DDOT":0},{"OBJECT_NAME":"STARLINK-4001","OBJECT_ID":"2022-052AG","EPOCH":"2025-09-04T16:41:35.456064","MEAN_MOTION":15.08835127,"ECCENTRICITY":0.00014493,"INCLINATION":53.2169,"RA_OF_ASC_NODE":39.082,"ARG_OF_PERICENTER":90.2204,"MEAN_ANOMALY":269.8954,"EPHEMERIS_TYPE":0,"CLASSIFICATION_TYPE":"U","NORAD_CAT_ID":52628,"ELEMENT_SET_NO":999,"REV_AT_EPOCH":18270,"BSTAR":-1.3552032e-5,"MEAN_MOTION_DOT":-5.04e-6,"MEAN_MOTION_DDOT":0},{"OBJECT_NAME":"STARLINK-4022","OBJECT_ID":"2022-052AH","EPOCH":"2025-09-04T16:56:49.326144","MEAN_MOTION":15.08837609,"ECCENTRICITY":0.00012129,"INCLINATION":53.218,"RA_OF_ASC_NODE":23.9942,"ARG_OF_PERICENTER":80.6283,"MEAN_ANOMALY":279.4846,"EPHEMERIS_TYPE":0,"CLASSIFICATION_TYPE":"U","NORAD_CAT_ID":52629,"ELEMENT_SET_NO":999,"REV_AT_EPOCH":18291,"BSTAR":2.5311703e-5,"MEAN_MOTION_DOT":1.15e-6,"MEAN_MOTION_DDOT":0},{"OBJECT_NAME":"STARLINK-3989","OBJECT_ID":"2022-052AJ","EPOCH":"2025-09-04T15:42:38.014560","MEAN_MOTION":15.08837098,"ECCENTRICITY":0.000123,"INCLINATION":53.2188,"RA_OF_ASC_NODE":24.2682,"ARG_OF_PERICENTER":88.8581,"MEAN_ANOMALY":271.2552,"EPHEMERIS_TYPE":0,"CLASSIFICATION_TYPE":"U","NORAD_CAT_ID":52630,"ELEMENT_SET_NO":999,"REV_AT_EPOCH":18290,"BSTAR":1.9715787e-5,"MEAN_MOTION_DOT":2.6e-7,"MEAN_MOTION_DDOT":0},{"OBJECT_NAME":"STARLINK-3794","OBJECT_ID":"2022-052AK","EPOCH":"2025-09-04T15:22:49.912608","MEAN_MOTION":15.08827595,"ECCENTRICITY":0.00013071,"INCLINATION":53.2185,"RA_OF_ASC_NODE":24.335,"ARG_OF_PERICENTER":79.5119,"MEAN_ANOMALY":280.6021,"EPHEMERIS_TYPE":0,"CLASSIFICATION_TYPE":"U","NORAD_CAT_ID":52631,"ELEMENT_SET_NO":999,"REV_AT_EPOCH":18291,"BSTAR":-4.686467e-6,"MEAN_MOTION_DOT":-3.62e-6,"MEAN_MOTION_DDOT":0}]
